1 20253U 89077A   26202.28482074 -.00000371  00000-0  00000-0 0  9992
2 20253  12.4119 350.9529 0002243 101.5178  74.7355  1.00280342260907
1 20776U 90079A   26202.21916326 -.00000262  00000-0  00000-0 0  9990
2 20776  13.3270 349.5995 0003087 131.4992  51.1207  0.98580596   377
1 22787U 93056A   26202.62190870  .00000120  00000-0  00000-0 0  9997
2 22787  11.9069   3.3585 0001991   1.2110 187.3055  1.00273498118893
1 23467U 95003A   26202.22271661 -.00000027  00000-0  00000-0 0  9998
2 23467   9.6808  12.9870 0002956  98.4040  80.1210  1.00269421115294
1 23967U 96042A   26202.39201662 -.00000306  00000-0  00000-0 0  9999
2 23967  11.1491  16.8877 0006521 118.8557 251.8489  1.00201023109839
1 25544U 98067A   26202.18553447  .00005896  00000-0  11479-3 0  9992
2 25544  51.6316 131.8443 0006849 320.6461  39.4029 15.49071756577020
1 25967U 99063A   26202.32661856 -.00000193  00000-0  00000-0 0  9999
2 25967   9.8512  27.0258 0001850 132.4560 234.2469  1.00271704 97698
1 27168U 02001A   26202.19238315  .00000091  00000-0  00000-0 0  9991
2 27168  11.2200  21.6959 0099339   9.2328 356.2360  1.00269593 33300
1 27607U 02058C   26201.93815510  .00000570  00000-0  84993-4 0  9999
2 27607  64.5521  24.5545 0074346 256.2283 103.0541 14.83105633269469
1 28117U 03057A   26202.56001537 -.00000108  00000-0  00000-0 0  9993
2 28117   8.9577  33.6351 0002791 105.3064  77.5248  1.00270712 82795
1 28899U 05044A   26202.50962664 -.00000262  00000-0  00000-0 0  9990
2 28899   5.1398  43.6902 0002919  59.6691 162.8705  1.00272679 75864
1 30794U 07007B   26202.63513128 -.00000274  00000-0  00000-0 0  9992
2 30794   5.3845  73.3145 0003423  50.8528 139.0906  1.00272412 71042
1 32294U 07056B   26202.26488731  .00000137  00000-0  00000-0 0  9990
2 32294   5.3352  73.0936 0003599  44.4903 301.8991  1.00270192 68533
1 35943U 09054B   26202.62880459  .00000027  00000-0  00000-0 0  9995
2 35943   0.0661 154.0766 0002927 325.8256 108.8527  1.00272165 61652
1 36582U 10021B   26202.61896203  .00000090  00000-0  00000-0 0  9994
2 36582   0.0408 152.0926 0002393 335.4775  47.8255  1.00270072 59301
1 38098U 12011A   26202.63062461 -.00000057  00000-0  00000-0 0  9996
2 38098   0.0029 349.8655 0002006 152.5194  96.1253  1.00271445  7531
1 39034U 12075A   26202.41281671  .00000100  00000-0  00000-0 0  9997
2 39034   0.0691  10.7231 0003699 116.3631  13.4461  1.00273381 49501
1 39215U 13038A   26202.33606528  .00000134  00000-0  00000-0 0  9998
2 39215   2.9994   1.1035 0002631 138.6991 305.1526  1.00272992 44365
1 40296U 14069A   26202.58180956  .00000296  00000-0  00000-0 0  9992
2 40296  63.4511 211.9671 6635815 270.3372  19.8700  2.00598521 85929
1 40931U 15052B   25151.18580782  .00001310  00000-0  87238-4 0  9990
2 40931   6.0001  24.1284 0012872 339.0660  20.8941 14.78806187523042
1 43678U 18084H   26202.57913221  .00001005  00000-0  84703-4 0  9993
2 43678  98.1222  40.2948 0012454  64.6346 295.6165 15.00576809421378
1 43700U 18090A   26202.62138870  .00000146  00000-0  00000-0 0  9990
2 43700   0.0117 347.1668 0002438 166.8289  34.8792  1.00273112 28029
1 43803U 18099AX  26202.59884410  .00016681  00000-0  49813-3 0  9996
2 43803  97.4107 265.5735 0007312 139.1474 221.0318 15.34657827418900
1 44453U 19046A   26201.61823657 -.00000074  00000-0  00000-0 0  9991
2 44453  63.1578  46.4311 7083475 274.9529  14.5912  2.00596847 51013
1 44909U 19096E   26202.32638599  .00000001  00000-0 -47847-4 0  9994
2 44909  82.5240 317.0216 0218395  64.7217 297.6340 12.79748807306715
1 45254U 20015A   26202.36503653 -.00000097  00000-0  00000-0 0  9998
2 45254  65.5373 315.3657 6847530 277.3221  15.7002  2.00608418 46978
1 52145U 22030A   26201.86586065  .00000136  00000-0  00000-0 0  9999
2 52145  62.6768 137.1564 6793462 272.8364  17.5929  2.00608707 31704
1 57167U 23091B   26010.59363612  .08733485  25619-5  12458-2 0  9993
2 57167  97.4978  91.1570 0009532 282.8011  77.2220 16.34765267141469
1 59112U 24043Q   26201.94279129  .00033286  00000-0  39440-3 0  9990
2 59112  97.5562 354.4821 0006563  88.1508 272.0500 15.61151934133156
1 67291U 25313AV  26202.03394480  .00010048  00000-0  38071-3 0  9997
2 67291  97.3911 276.9085 0007938 223.0851 136.9767 15.27067305 31157
1 26635U 00080A   21013.46269075 0.00000000  00000-0  00000-0 0    09
2 26635   9.2857  29.8038 0014383 186.3086 173.6859  1.00273100    09
1 34810U 09020A   26118.58802400 0.00000000  00000-0  00000-0 0    05
2 34810   3.0809  80.0043 0003222 250.4250 109.5484  1.00270000    01
1 40614U 15022B   25359.93496764 0.00000000  00000-0  00000-0 0    00
2 40614   0.0160 108.2839 0003453 352.8976   7.0980  1.00270000    04
